X.1,lat,long,checkins,address,name,station_info,X,url_location,locationIDs
144,41.386896,2.144457,All Checkins (0),"https://www.google.com/maps/dir//Carrer de París, 58, 60, 08029 Barcelona, Spain","Nissan Motor Llansà | Barcelona, CT | EV Station",CHAdeMO 1 Plug  kW 1 Stationcheck_circle0 Availableaccount_circle0 In Useremove_circle0 UnavailableOplaadpalen Non-networked,76270,https://www.plugshare.com/location/25051,25051
145,41.399727,2.02543,All Checkins (1),"https://www.google.com/maps/dir//Carrer Ramon i Cajal, 20, 08750 Molins de Rei, Barcelona, Spain","Nissan - Otto Diesel | Molins de Rei, CT | EV Station",CHAdeMO 1 Plug  kW 1 Stationcheck_circle0 Availableaccount_circle0 In Useremove_circle0 UnavailableOplaadpalen Non-networked,76288,https://www.plugshare.com/location/25055,25055
151,41.355033,2.142924,All Checkins (2),"https://www.google.com/maps/dir//Passeig de la Zona Franca, 66.B, 08038 Barcelona, Barcelona, Spain","MOTOR LLANSA | Barcelona, CT | EV Station",CHAdeMO 1 Plug  kW 1 Stationcheck_circle0 Availableaccount_circle0 In Useremove_circle0 UnavailableOplaadpalen Non-networked,76499,https://www.plugshare.com/location/25101,25101
293,41.305738,-72.927422,All Checkins (60),"https://www.google.com/maps/dir//155 Temple Street, New Haven Connecticut 06510","Chapel Square Garage - Omni New Haven Hotel | New Haven, CT | EV Station",Tesla (Roadster) 1 Plug  kW 1 Stationcheck_circle0 Availableaccount_circle0 In Useremove_circle0 Unavailable Non-networked J-1772 1 Plug  kW 1 Stationcheck_circle0 Availableaccount_circle0 In Useremove_circle0 Unavailable Non-networked,101805,https://www.plugshare.com/location/302,302
514,41.87965,-72.72989,All Checkins (8),"https://www.google.com/maps/dir//1 Griffin Rd N, Windsor Connecticut  06095","Hartford Life | Windsor, CT | EV Station",J-1772 1 Plug  kW 1 Stationcheck_circle0 Availableaccount_circle0 In Useremove_circle0 Unavailable Non-networked Wall 1 Plug  kW 1 Stationcheck_circle0 Availableaccount_circle0 In Useremove_circle0 Unavailable Non-networked,33774,https://www.plugshare.com/location/1665,1665
656,41.997541,-72.574467,All Checkins (62),"https://www.google.com/maps/dir//10 Palomba Dr, Enfield, CT 06082, USA","Lia Nissan of Enfield | Enfield, CT | EV Station",J-1772 3 Plugs  kW 2 Stationscheck_circle0 Availableaccount_circle0 In Useremove_circle0 Unavailable Non-networked CCS1 1 Plug 50 kW 1 Stationcheck_circle0 Availableaccount_circle0 In Useremove_circle0 UnavailableInCharge Non-networked CHAdeMO 1 Plug 50 kW 1 Stationcheck_circle0 Availableaccount_circle0 In Useremove_circle0 UnavailableInCharge Non-networked,44947,https://www.plugshare.com/location/1880,1880
663,41.590546597481,-72.6761618256569,All Checkins (200),"https://www.google.com/maps/dir//1153-1223 CT-3, Middletown, CT 06457, USA","Middletown Nissan | Middletown, CT | EV Station",J-1772 3 Plugs  kW 3 Stationscheck_circle0 Availableaccount_circle0 In Useremove_circle0 Unavailable Non-networked CHAdeMO 1 Plug  kW 1 Stationcheck_circle0 Availableaccount_circle0 In Useremove_circle0 UnavailableInCharge Non-networked CCS1 1 Plug  kW 1 Stationcheck_circle0 Availableaccount_circle0 In Useremove_circle0 UnavailableInCharge Non-networked,45350,https://www.plugshare.com/location/1888,1888
664,41.4673,-72.81785,All Checkins (273),"https://www.google.com/maps/dir//505 N Colony Rd, Wallingford, CT 06492, USA","Barberino Nissan Parts | Wallingford, CT | EV Station",CHAdeMO 1 Plug 50 kW 1 Stationcheck_circle0 Availableaccount_circle0 In Useremove_circle0 Unavailable Non-networked CCS1 1 Plug 50 kW 1 Stationcheck_circle0 Availableaccount_circle0 In Useremove_circle0 Unavailable Non-networked,45399,https://www.plugshare.com/location/1889,1889
665,41.2096939643299,-73.0837849791679,All Checkins (38),"https://www.google.com/maps/dir//688 Bridgeport Ave, Milford, CT 06460, USA","Napoli Nissan | Milford, CT | EV Station",J-1772 1 Plug  kW 1 Stationcheck_circle0 Availableaccount_circle0 In Useremove_circle0 Unavailable Non-networked CCS1 1 Plug  kW 1 Stationcheck_circle0 Availableaccount_circle0 In Useremove_circle0 UnavailableInCharge Non-networked CHAdeMO 1 Plug  kW 1 Stationcheck_circle0 Availableaccount_circle0 In Useremove_circle0 UnavailableInCharge Non-networked,45543,https://www.plugshare.com/location/1892,1892
1028,41.672219,-72.858278,All Checkins (105),"https://www.google.com/maps/dir//41 Woodford Ave, Plainville, CT 06062, USA","GE Energy | Plainville, CT | EV Station",J-1772 10 Plugs 7.2 kW 10 Stationscheck_circle0 Availableaccount_circle0 In Useremove_circle0 Unavailable Non-networked,124424,https://www.plugshare.com/location/3440,3440
1256,41.2756143416356,-73.1309028796234,All Checkins (14),"https://www.google.com/maps/dir//15 Progress Drive, Shelton, CT, 06484","Lex Products | Shelton, CT | EV Station",Wall 2 Plugs  kW 2 Stationscheck_circle0 Availableaccount_circle0 In Useremove_circle0 UnavailableChargePoint Non-networked J-1772 2 Plugs  kW 2 Stationscheck_circle0 Availableaccount_circle0 In Useremove_circle0 UnavailableChargePoint Non-networked,162651,https://www.plugshare.com/location/4131,4131
1848,41.309288,-72.383092,All Checkins (228),"https://www.google.com/maps/dir//295 Middlesex Turnpike, Old Saybrook, CT 06475, USA","Grossman Nissan | Old Saybrook, CT | EV Station",J-1772 2 Plugs  kW 2 Stationscheck_circle0 Availableaccount_circle0 In Useremove_circle0 Unavailable Non-networked CHAdeMO 1 Plug  kW 1 Stationcheck_circle0 Availableaccount_circle0 In Useremove_circle0 UnavailableInCharge Non-networked CCS1 1 Plug  kW 1 Stationcheck_circle0 Availableaccount_circle0 In Useremove_circle0 UnavailableInCharge Non-networked,250204,https://www.plugshare.com/location/5803,5803
1883,41.298341,-72.925941,All Checkins (74),"https://www.google.com/maps/dir//40 Union Ave, New Haven, CT 06519, USA","New Haven Union Station | New Haven, CT | EV Station",J-1772 12 Plugs 6.48 kW 6 Stationscheck_circle2 Availableaccount_circle10 In Useremove_circle0 UnavailableChargePoint Non-networked,256069,https://www.plugshare.com/location/5962,5962
1884,41.303951,-72.928947,All Checkins (98),"https://www.google.com/maps/dir//40 Temple St, New Haven 06510","Temple Street Garage | New Haven, CT | EV Station",J-1772 4 Plugs 6.48 kW 2 Stationscheck_circle0 Availableaccount_circle4 In Useremove_circle0 UnavailableChargePoint Non-networked,256093,https://www.plugshare.com/location/5963,5963
1885,41.305223,-72.933971,All Checkins (63),"https://www.google.com/maps/dir//60 York St, New Haven 06511","Air Rights Garage | New Haven, CT | EV Station",J-1772 5 Plugs 6.48 kW 3 Stationscheck_circle1 Availableaccount_circle3 In Useremove_circle0 UnavailableChargePoint Non-networked,256117,https://www.plugshare.com/location/5964,5964
2302,41.14314,-73.26404,All Checkins (75),"https://www.google.com/maps/dir//140 Mill Plain Rd, Fairfield, CT 06824, USA","Mill Plain Commuter Lot | Fairfield, CT | EV Station",J-1772 3 Plugs 13.3 kW 3 Stationscheck_circle2 Availableaccount_circle0 In Useremove_circle1 UnavailableAmpUp Non-networked,304354,https://www.plugshare.com/location/7010,7010
2409,41.140614,-73.256798,All Checkins (149),"https://www.google.com/maps/dir//1451 Post Rd., Fairfield, CT, 06824","Sherman Town Green | Fairfield, CT | EV Station",J-1772 3 Plugs 13.3 kW 3 Stationscheck_circle2 Availableaccount_circle0 In Useremove_circle1 UnavailableAmpUp Non-networked,314356,https://www.plugshare.com/location/7248,7248
2574,41.05422,-73.541608,All Checkins (91),"https://www.google.com/maps/dir//100 Summer St., Stamford, CT, 06901","Summer Street Garage | Stamford, CT | EV Station",J-1772 3 Plugs  kW 3 Stationscheck_circle0 Availableaccount_circle0 In Useremove_circle0 Unavailable Non-networked,325109,https://www.plugshare.com/location/7621,7621
2580,41.051667,-73.542959,All Checkins (70),"https://www.google.com/maps/dir//888 Washington Blvd, Stamford, CT 06901","Stamford Government Center Garage | Stamford, CT | EV Station",J-1772 3 Plugs  kW 3 Stationscheck_circle0 Availableaccount_circle0 In Useremove_circle0 Unavailable Non-networked,388823,https://www.plugshare.com/location/7638,7638
2641,41.072695,-73.476791,All Checkins (11),"https://www.google.com/maps/dir//138-142 Ledge Rd, Darien 06820","BMW of Darien | Darien, CT | EV Station",J-1772 2 Plugs 6.48 kW 1 Stationcheck_circle2 Availableaccount_circle0 In Useremove_circle0 UnavailableChargePoint Non-networked,326780,https://www.plugshare.com/location/7813,7813
2849,41.070862,-73.54882,All Checkins (0),"https://www.google.com/maps/dir//3001 Summer St Stamford, CT 06905","Stanford Square Associates | Stamford, CT | EV Station",J-1772 1 Plug 7.2 kW 1 Stationcheck_circle0 Availableaccount_circle0 In Useremove_circle0 Unavailable Non-networked,330230,https://www.plugshare.com/location/8249,8249
2878,41.144989,-73.428673,All Checkins (2),"https://www.google.com/maps/dir//901 Main Ave, Norwalk, CT, 06851","General Electric Capital - Employee Parking | Norwalk, CT | EV Station",J-1772 2 Plugs 7.2 kW 2 Stationscheck_circle0 Availableaccount_circle0 In Useremove_circle0 Unavailable Non-networked,389677,https://www.plugshare.com/location/8310,8310
2889,41.803465,-73.121064,All Checkins (196),"https://www.google.com/maps/dir//140 Main St, Torrington, CT 06790, USA","Torrington City Hall | Torrington, CT | EV Station",J-1772 1 Plug  kW 1 Stationcheck_circle0 Availableaccount_circle0 In Useremove_circle0 Unavailable Non-networked,330871,https://www.plugshare.com/location/8346,8346
2890,41.635849,-73.208794,All Checkins (6),"https://www.google.com/maps/dir//74 Main St, Bethlehem, CT, 06751","Painted Pony Restaurant | Bethlehem, CT | EV Station",J-1772 1 Plug  kW 1 Stationcheck_circle0 Availableaccount_circle0 In Useremove_circle0 Unavailable Non-networked,330888,https://www.plugshare.com/location/8348,8348
2920,41.728375,-72.188792,All Checkins (11),https://www.google.com/maps/dir//143 Boston Post Rd North Windham CT,"Gates GMC Nissan - Service | Windham, CT | EV Station",J-1772 2 Plugs  kW 2 Stationscheck_circle0 Availableaccount_circle0 In Useremove_circle0 Unavailable Non-networked,331752,https://www.plugshare.com/location/8470,8470
3007,41.371395,-72.056503,All Checkins (17),"https://www.google.com/maps/dir//425 Gold Star Hwy, Groton, CT 06340","Girard Nissan | Groton, CT | EV Station",J-1772 3 Plugs  kW 3 Stationscheck_circle0 Availableaccount_circle0 In Useremove_circle0 Unavailable Non-networked,332900,https://www.plugshare.com/location/8746,8746
3025,41.758869,-72.744766,All Checkins (217),"https://www.google.com/maps/dir//105 Lasalle Rd., West Hartford, CT 06107","Arapahoe Parking Lot | West Hartford, CT | EV Station",J-1772 1 Plug  kW 1 Stationcheck_circle0 Availableaccount_circle0 In Useremove_circle0 Unavailable Non-networked,333259,https://www.plugshare.com/location/8834,8834
3080,41.811322,-72.262214,All Checkins (31),"https://www.google.com/maps/dir//31 LeDoyt Rd, Storrs, CT 06268, USA","University of CT - Motor Pool | Mansfield, CT | EV Station",J-1772 2 Plugs 6.48 kW 1 Stationcheck_circle2 Availableaccount_circle0 In Useremove_circle0 UnavailableChargePoint Non-networked,333773,https://www.plugshare.com/location/8974,8974
3081,41.86762,-71.89246,All Checkins (0),"https://www.google.com/maps/dir//8 Tracy Road, Dayville, CT 06241, USA","The Gold Eagle at The Laurel House | Killingly, CT | EV Station",Wall 1 Plug  kW 1 Stationcheck_circle0 Availableaccount_circle0 In Useremove_circle0 Unavailable Non-networked,333801,https://www.plugshare.com/location/8979,8979
3082,41.52779,-72.063652,All Checkins (55),"https://www.google.com/maps/dir//169 N Main St, Norwich, CT 06360, USA","Norwich Public Utilities | Norwich, CT | EV Station",J-1772 2 Plugs  kW 2 Stationscheck_circle0 Availableaccount_circle0 In Useremove_circle0 Unavailable Non-networked,333808,https://www.plugshare.com/location/8981,8981
3083,41.43232,-72.222226,All Checkins (3),"https://www.google.com/maps/dir//1650 Hartford-New London Turnpike, Oakdale, CT 06370, USA","Dinosaur Place Park & Museum | Montville, CT | EV Station",Wall 1 Plug  kW 1 Stationcheck_circle0 Availableaccount_circle0 In Useremove_circle0 Unavailable Non-networked,333813,https://www.plugshare.com/location/8982,8982
3084,41.916508,-71.90815,All Checkins (109),"https://www.google.com/maps/dir//23 Livery St, Putnam, CT 06260","Cargill Chevrolet | Putnam, CT | EV Station",J-1772 3 Plugs  kW 3 Stationscheck_circle0 Availableaccount_circle0 In Useremove_circle0 Unavailable Non-networked,333818,https://www.plugshare.com/location/8983,8983
3132,41.386823,-72.436659,All Checkins (69),"https://www.google.com/maps/dir//150 Main Street, Deep River, CT, 06417","Deep River Public Library | Deep River, CT | EV Station",J-1772 2 Plugs  kW 2 Stationscheck_circle0 Availableaccount_circle0 In Useremove_circle0 UnavailableLoop Non-networked,334449,https://www.plugshare.com/location/9136,9136
3135,41.841489,-71.880938,All Checkins (2),"https://www.google.com/maps/dir//1094 Killingly Commons Drive, Dayville, CT 06241, USA","Killingly Commons - Stop & Shop | Killingly, CT | EV Station",Wall 1 Plug  kW 1 Stationcheck_circle0 Availableaccount_circle0 In Useremove_circle0 Unavailable Non-networked,334496,https://www.plugshare.com/location/9151,9151
3179,41.146497,-73.492229,All Checkins (66),"https://www.google.com/maps/dir//1 Morse Ct, New Canaan, CT 06840","Morse Court Public Parking Lot | New Canaan, CT | EV Station",J-1772 1 Plug  kW 1 Stationcheck_circle0 Availableaccount_circle0 In Useremove_circle0 Unavailable Non-networked,335444,https://www.plugshare.com/location/9336,9336
3181,41.943916,-71.972717,All Checkins (7),"https://www.google.com/maps/dir//94 Plaine Hill Rd, Woodstock, CT 06281, USA","The Inn at Woodstock Hill (1) | Woodstock, CT | EV Station",J-1772 1 Plug  kW 1 Stationcheck_circle0 Availableaccount_circle0 In Useremove_circle0 Unavailable Non-networked Wall 1 Plug  kW 1 Stationcheck_circle0 Availableaccount_circle0 In Useremove_circle0 Unavailable Non-networked,335478,https://www.plugshare.com/location/9342,9342
3227,41.846451,-72.014702,All Checkins (0),"https://www.google.com/maps/dir//728 Hampton Rd, Pomfret Center, CT 06259, USA","We Lik It Ice Cream | Pomfret, CT | EV Station",Wall 1 Plug  kW 1 Stationcheck_circle0 Availableaccount_circle0 In Useremove_circle0 Unavailable Non-networked,336002,https://www.plugshare.com/location/9452,9452
3318,41.859909,-71.960835,All Checkins (0),"https://www.google.com/maps/dir//20 Pomfret St, Pomfret Center, CT 06259, USA","Pomfret Community School | Pomfret, CT | EV Station",Wall 1 Plug  kW 1 Stationcheck_circle0 Availableaccount_circle0 In Useremove_circle0 Unavailable Non-networked,336915,https://www.plugshare.com/location/9642,9642
3324,41.858525,-71.961165,All Checkins (1),"https://www.google.com/maps/dir//24 Mashamoquet Rd, Pomfret Center, CT 06259, USA","Baker's Dozen | Pomfret, CT | EV Station",Wall 1 Plug  kW 1 Stationcheck_circle0 Availableaccount_circle0 In Useremove_circle0 Unavailable Non-networked,336962,https://www.plugshare.com/location/9654,9654
3330,41.192861,-73.431267,All Checkins (40),"https://www.google.com/maps/dir//137 Old Ridgefield Rd, Wilton, CT 06897","Wilton Public Library | Wilton, CT | EV Station",J-1772 1 Plug  kW 1 Stationcheck_circle0 Availableaccount_circle0 In Useremove_circle0 Unavailable Non-networked,337015,https://www.plugshare.com/location/9666,9666
3371,41.791307,-71.935484,All Checkins (0),"https://www.google.com/maps/dir//87 Prince Hill Road, Brooklyn, CT 06234, USA","Prince Hill Park | Brooklyn, CT | EV Station",Wall 1 Plug  kW 1 Stationcheck_circle0 Availableaccount_circle0 In Useremove_circle0 Unavailable Non-networked,337600,https://www.plugshare.com/location/9789,9789
3372,41.840121,-71.879683,All Checkins (0),"https://www.google.com/maps/dir//1150 Killingly Commons Drive, Dayville, CT 06241, USA","Killingly Commons - Lowe's | Killingly, CT | EV Station",Wall 1 Plug  kW 1 Stationcheck_circle0 Availableaccount_circle0 In Useremove_circle0 Unavailable Non-networked,337607,https://www.plugshare.com/location/9790,9790
3373,41.84548,-71.88214,All Checkins (0),"https://www.google.com/maps/dir//Owen Bell Park, 580 Hartford Pike, Dayville, CT 06241, USA","Owen Bell Park | Killingly, CT | EV Station",Wall 1 Plug  kW 1 Stationcheck_circle0 Availableaccount_circle0 In Useremove_circle0 Unavailable Non-networked,337614,https://www.plugshare.com/location/9791,9791
3374,41.84492,-71.88256,All Checkins (2),"https://www.google.com/maps/dir//Route 101, Dayville, CT 06241, USA","Owen Bell/Jewitt City Savings Bank | Killingly, CT | EV Station",Wall 1 Plug  kW 1 Stationcheck_circle0 Availableaccount_circle0 In Useremove_circle0 Unavailable Non-networked,337617,https://www.plugshare.com/location/9792,9792
3375,41.768745,-72.682436,All Checkins (22),"https://www.google.com/maps/dir//2 Spruce St, Hartford, CT 06103, USA","Hartford Union Station - Spruce St Lot | Hartford, CT | EV Station",J-1772 4 Plugs 7.6 - 13.3 kW 4 Stationscheck_circle0 Availableaccount_circle0 In Useremove_circle4 UnavailableAmpUp Non-networked,337672,https://www.plugshare.com/location/9803,9803
3376,41.769202,-72.672655,All Checkins (0),"https://www.google.com/maps/dir//Morgan Street, Hartford, CT 06103, USA","Morgan St Parking | East Hartford, CT | EV Station",Wall 1 Plug  kW 1 Stationcheck_circle0 Availableaccount_circle0 In Useremove_circle0 Unavailable Non-networked,337686,https://www.plugshare.com/location/9806,9806
3391,41.58234,-73.40961,All Checkins (2),"https://www.google.com/maps/dir//19 Poplar St, New Milford, CT 06776, USA","New Milford Hospital | New Milford, CT | EV Station",Wall 1 Plug  kW 1 Stationcheck_circle0 Availableaccount_circle0 In Useremove_circle0 Unavailable Non-networked,337829,https://www.plugshare.com/location/9835,9835
3419,41.283932,-72.351318,All Checkins (57),"https://www.google.com/maps/dir//2 Bridge St Old Saybrook, CT 06475","Saybrook Point Inn & Spa | Old Saybrook, CT | EV Station",J-1772 6 Plugs  kW 6 Stationscheck_circle0 Availableaccount_circle0 In Useremove_circle0 UnavailableAmpUp Non-networked,338183,https://www.plugshare.com/location/9913,9913
3481,41.917715,-71.90983,All Checkins (0),"https://www.google.com/maps/dir//211 Kennedy Drive, Putnam, CT 06260, USA","R.B. Steele Bldg/Bank of America | Putnam, CT | EV Station",Wall 1 Plug  kW 1 Stationcheck_circle0 Availableaccount_circle0 In Useremove_circle0 Unavailable Non-networked,284,https://www.plugshare.com/location/10068,10068
3482,41.917668,-71.909126,All Checkins (1),"https://www.google.com/maps/dir//207 Kennedy Dr, Putnam, CT 06260, USA","Verizon/China Star | Putnam, CT | EV Station",Wall 1 Plug  kW 1 Stationcheck_circle0 Availableaccount_circle0 In Useremove_circle0 Unavailable Non-networked,338655,https://www.plugshare.com/location/10069,10069
3487,41.936401,-71.958206,All Checkins (1),"https://www.google.com/maps/dir//243-245 Norwich Worcester Turnpike, Woodstock, CT 06281, USA","Java Jive Cafe | Woodstock, CT | EV Station",Wall 1 Plug  kW 1 Stationcheck_circle0 Availableaccount_circle0 In Useremove_circle0 Unavailable Non-networked,380,https://www.plugshare.com/location/10086,10086
3523,41.7984240032146,-71.9061507521496,All Checkins (37),"https://www.google.com/maps/dir//512 Providence Rd, Brooklyn, CT 06234, USA","Vachon Chevrolet - Service | Brooklyn, CT | EV Station",J-1772 1 Plug  kW 1 Stationcheck_circle0 Availableaccount_circle0 In Useremove_circle0 Unavailable Non-networked,740,https://www.plugshare.com/location/10156,10156
3527,41.842464,-71.882042,All Checkins (6),"https://www.google.com/maps/dir//1068 Killingly Commons Drive, Dayville, CT 06241, USA","Killingly Commons - 99 Restaurants | Killingly, CT | EV Station",Wall 1 Plug  kW 1 Stationcheck_circle0 Availableaccount_circle0 In Useremove_circle0 Unavailable Non-networked,797,https://www.plugshare.com/location/10168,10168
3542,41.792442,-72.059242,All Checkins (0),"https://www.google.com/maps/dir//380 Main St, Hampton, CT 06247, USA","Hampton Elementary School | Hampton, CT | EV Station",Wall 1 Plug  kW 1 Stationcheck_circle0 Availableaccount_circle0 In Useremove_circle0 Unavailable Non-networked,972,https://www.plugshare.com/location/10203,10203
3642,41.996918,-72.582382,All Checkins (17),"https://www.google.com/maps/dir//90 Elm St, Enfield, CT, 06082","Figaro Ristorante | Enfield, CT | EV Station",J-1772 2 Plugs  kW 1 Stationcheck_circle0 Availableaccount_circle0 In Useremove_circle0 Unavailable Non-networked,3748,https://www.plugshare.com/location/10625,10625
3650,41.259049587278,-73.4356051951065,All Checkins (81),"https://www.google.com/maps/dir//978 Danbury Rd, Wilton, CT 06897, USA","Bruce Bennett Nissan | Wilton, CT | EV Station",CHAdeMO 1 Plug 50 kW 1 Stationcheck_circle0 Availableaccount_circle0 In Useremove_circle0 UnavailableInCharge Non-networked CCS1 1 Plug 50 kW 1 Stationcheck_circle0 Availableaccount_circle0 In Useremove_circle0 UnavailableInCharge Non-networked,3971,https://www.plugshare.com/location/10652,10652
3738,41.140709,-73.348274,All Checkins (42),"https://www.google.com/maps/dir//495 Crescent Park Rd, Westport, CT, 06880","Office Park | Westport, CT | EV Station",J-1772 2 Plugs  kW 2 Stationscheck_circle0 Availableaccount_circle0 In Useremove_circle0 Unavailable Non-networked,5369,https://www.plugshare.com/location/10843,10843
3744,41.7615925953923,-72.6677955238037,All Checkins (156),"https://www.google.com/maps/dir//100 Columbus Blvd, Hartford, CT 06103, USA","Connecticut Convention Center (1) | Hartford, CT | EV Station",J-1772 6 Plugs  kW 5 Stationscheck_circle0 Availableaccount_circle0 In Useremove_circle0 Unavailable Non-networked,5449,https://www.plugshare.com/location/10858,10858
3752,41.840424,-71.876816,All Checkins (2),"https://www.google.com/maps/dir//1085 North Main Street, Dayville, CT 06241, USA","Subway | Killingly, CT | EV Station",Wall 1 Plug  kW 1 Stationcheck_circle0 Availableaccount_circle0 In Useremove_circle0 Unavailable Non-networked,5556,https://www.plugshare.com/location/10884,10884
3779,41.145969,-73.49954,All Checkins (10),"https://www.google.com/maps/dir//261 Elm St, New Canaan, CT 06840","Chevy Auto | New Canaan, CT | EV Station",J-1772 4 Plugs 33.2 kW 4 Stationscheck_circle2 Availableaccount_circle0 In Useremove_circle1 UnavailableAmpUp Non-networked,6020,https://www.plugshare.com/location/10976,10976
3942,41.728676,-72.72802,All Checkins (0),"https://www.google.com/maps/dir//60 Woodlawn Street, West Hartford, CT 06110, USA","Wiremold/Legrand Headquarters and Factory | West Hartford, CT | EV Station",J-1772 14 Plugs 11.5 kW 14 Stationscheck_circle12 Availableaccount_circle0 In Useremove_circle1 UnavailableAmpUp Non-networked,7760,https://www.plugshare.com/location/11348,11348
3944,41.985096,-71.91497,All Checkins (0),"https://www.google.com/maps/dir//108 Mountain Hill Rd, North Grosvenor Dale, CT 06255, USA","Camp Waldron | Thompson, CT | EV Station",Wall 1 Plug  kW 1 Stationcheck_circle0 Availableaccount_circle0 In Useremove_circle0 Unavailable Non-networked,7772,https://www.plugshare.com/location/11352,11352
4123,41.918953,-71.908356,All Checkins (2),"https://www.google.com/maps/dir//250 Kennedy Drive, Putnam, CT 06260, USA","Riverfront Commons | Putnam, CT | EV Station",Wall 1 Plug  kW 1 Stationcheck_circle0 Availableaccount_circle0 In Useremove_circle0 Unavailable Non-networked,340996,https://www.plugshare.com/location/11813,11813
4147,41.784424,-72.74794,All Checkins (218),"https://www.google.com/maps/dir//345 N Main St, West Hartford 06117","Bishops Corner Shopping Center | West Hartford, CT | EV Station",J-1772 2 Plugs 6.48 kW 1 Stationcheck_circle0 Availableaccount_circle0 In Useremove_circle0 UnavailableChargePoint Non-networked,10301,https://www.plugshare.com/location/11873,11873
4254,41.245846,-73.009048,All Checkins (244),"https://www.google.com/maps/dir//1 Connecticut Tpke, Milford, CT 06460, USA","I-95 Milford NB Service Plaza - Mobil | Milford, CT | EV Station",NACS (Tesla) 2 Plugs 150 kW 2 Stationscheck_circle0 Availableaccount_circle0 In Useremove_circle0 UnavailableSupercharger Non-networked,11228,https://www.plugshare.com/location/12066,12066
4255,41.246197,-73.010574,All Checkins (247),"https://www.google.com/maps/dir//I-95 South, Milford, CT 06460, USA","I-95 Milford SB Service Plaza - Mobil | Milford, CT | EV Station",NACS (Tesla) 2 Plugs 150 kW 2 Stationscheck_circle0 Availableaccount_circle0 In Useremove_circle0 UnavailableSupercharger Non-networked,11233,https://www.plugshare.com/location/12067,12067
4314,41.86824,-71.892517,All Checkins (1),"https://www.google.com/maps/dir//16 Tracy Road, Dayville, CT 06241, USA","Comfort Inn & Suites | Killingly, CT | EV Station",Wall 1 Plug  kW 1 Stationcheck_circle0 Availableaccount_circle0 In Useremove_circle0 Unavailable Non-networked,341468,https://www.plugshare.com/location/12235,12235
4345,41.052268,-73.541053,All Checkins (40),"https://www.google.com/maps/dir//28 Bell St, Stamford, CT 06901","Bell Street Garage | Stamford, CT | EV Station",J-1772 3 Plugs  kW 3 Stationscheck_circle0 Availableaccount_circle0 In Useremove_circle0 Unavailable Non-networked,12293,https://www.plugshare.com/location/12305,12305
4587,41.805035,-72.243202,All Checkins (85),"https://www.google.com/maps/dir//9 Dog Lane, Storrs Mansfield, CT, 06269, USA","Storrs Center Parking Garage | Mansfield, CT | EV Station",J-1772 4 Plugs  kW 4 Stationscheck_circle0 Availableaccount_circle0 In Useremove_circle0 Unavailable Non-networked,14839,https://www.plugshare.com/location/12821,12821
4693,41.761074,-72.740701,All Checkins (214),"https://www.google.com/maps/dir//75 Isham Rd., West Hartford, CT, 06107","Blue Back Square | West Hartford, CT | EV Station",J-1772 1 Plug  kW 1 Stationcheck_circle0 Availableaccount_circle0 In Useremove_circle0 Unavailable Non-networked,16435,https://www.plugshare.com/location/13123,13123
4822,41.878468,-72.738509,All Checkins (76),"https://www.google.com/maps/dir//1985 Blue Hills Ave Ext, Bloomfield, CT, 06002","Eversource | Bloomfield, CT | EV Station",J-1772 1 Plug  kW 1 Stationcheck_circle0 Availableaccount_circle0 In Useremove_circle0 Unavailable Non-networked,18585,https://www.plugshare.com/location/13514,13514
4850,41.775211,-72.699623,All Checkins (7),"https://www.google.com/maps/dir//114 Woodland St  Hartford, CT 06105","Saint Francis Hospital | Hartford, CT | EV Station",J-1772 1 Plug  kW 1 Stationcheck_circle0 Availableaccount_circle0 In Useremove_circle0 Unavailable Non-networked,18959,https://www.plugshare.com/location/13597,13597
4851,41.7660288243448,-72.6769923609958,All Checkins (30),"https://www.google.com/maps/dir//185 Pearl St, Hartford, CT 06103","LAZ Parking 185 Pearl St | Hartford, CT | EV Station",J-1772 1 Plug 12 kW 1 Stationcheck_circle0 Availableaccount_circle1 In Useremove_circle0 UnavailableChargePoint Non-networked,18966,https://www.plugshare.com/location/13598,13598
4897,41.295814,-73.080914,All Checkins (5),"https://www.google.com/maps/dir//40Waterview Dr, Shelton, CT 06484","Hubbell Incorporated | Shelton, CT | EV Station",J-1772 1 Plug  kW 1 Stationcheck_circle0 Availableaccount_circle0 In Useremove_circle0 Unavailable Non-networked,19447,https://www.plugshare.com/location/13700,13700
4930,41.8010027538627,-72.2434498615466,All Checkins (28),"https://www.google.com/maps/dir//10 South Eagleville Rd, Storrs, CT 06268","Mansfield Community Center (1) | Mansfield, CT | EV Station",J-1772 2 Plugs  kW 1 Stationcheck_circle0 Availableaccount_circle0 In Useremove_circle0 Unavailable Non-networked,19867,https://www.plugshare.com/location/13768,13768
5013,41.799494,-71.902535,All Checkins (4),"https://www.google.com/maps/dir//554 Providence Rd, Brooklyn, CT 06234, USA","McDonald's | Brooklyn, CT | EV Station",Wall 1 Plug  kW 1 Stationcheck_circle0 Availableaccount_circle0 In Useremove_circle0 Unavailable Non-networked,20779,https://www.plugshare.com/location/13947,13947
5193,41.925011,-71.881719,All Checkins (2),"https://www.google.com/maps/dir//6 Providence Pike, Putnam, CT 06260, USA","McDonald's | Putnam, CT | EV Station",Wall 1 Plug  kW 1 Stationcheck_circle0 Availableaccount_circle0 In Useremove_circle0 Unavailable Non-networked,23064,https://www.plugshare.com/location/14431,14431
5196,41.766132,-72.671959,All Checkins (9),"https://www.google.com/maps/dir//10-90 State House Square, Hartford, CT, 06103","State House Square | Hartford, CT | EV Station",J-1772 1 Plug  kW 1 Stationcheck_circle0 Availableaccount_circle0 In Useremove_circle0 Unavailable Non-networked,23087,https://www.plugshare.com/location/14436,14436
5283,41.2570846201731,-73.0013045831458,All Checkins (14),"https://www.google.com/maps/dir//180 Marsh Hill Rd, Orange, CT 06477","AVANGRID NETWORKS | Orange, CT | EV Station",J-1772 5 Plugs 7.2 kW 3 Stationscheck_circle0 Availableaccount_circle0 In Useremove_circle0 Unavailable Non-networked CHAdeMO 2 Plugs 62.5 kW 2 Stationscheck_circle0 Availableaccount_circle0 In Useremove_circle0 UnavailableChargePoint Non-networked CCS1 2 Plugs 62.5 - 62.6 kW 2 Stationscheck_circle0 Availableaccount_circle0 In Useremove_circle0 UnavailableChargePoint Non-networked,24107,https://www.plugshare.com/location/14649,14649
5303,41.892295,-71.964161,All Checkins (1),"https://www.google.com/maps/dir//528 Pomfret Street, Pomfret Center, CT 06259, USA","The Rectory School | Pomfret, CT | EV Station",Wall 1 Plug  kW 1 Stationcheck_circle0 Availableaccount_circle0 In Useremove_circle0 Unavailable Non-networked,24451,https://www.plugshare.com/location/14717,14717
5344,41.986507,-72.468292,All Checkins (3),"https://www.google.com/maps/dir//349 Main St Somers, CT 06071","Sonny's Golf & Games | Somers, CT | EV Station",Wall 1 Plug  kW 1 Stationcheck_circle0 Availableaccount_circle0 In Useremove_circle0 Unavailable Non-networked,344537,https://www.plugshare.com/location/14830,14830
5586,41.30914,-72.100214,All Checkins (5),"https://www.google.com/maps/dir//98 Neptune Ave, New London, CT 06320, USA","Ocean Beach Park | New London, CT | EV Station",Wall 1 Plug  kW 1 Stationcheck_circle0 Availableaccount_circle0 In Useremove_circle0 Unavailable Non-networked,345376,https://www.plugshare.com/location/15531,15531
5637,41.946162,-72.686301,All Checkins (1),"https://www.google.com/maps/dir//34 Perimeter Road, Windsor Locks, CT 06096, USA","Connecticut Fire Academy | Windsor Locks, CT | EV Station",Wall 1 Plug  kW 1 Stationcheck_circle0 Availableaccount_circle0 In Useremove_circle0 Unavailable Non-networked,29039,https://www.plugshare.com/location/15722,15722
5683,41.951637,-72.665695,All Checkins (9),"https://www.google.com/maps/dir//1186 South St, Suffield, CT, 06078","Bradley International Airport - Executive Valet Parking | Suffield, CT | EV Station",Wall 1 Plug  kW 1 Stationcheck_circle0 Availableaccount_circle0 In Useremove_circle0 Unavailable Non-networked J-1772 1 Plug  kW 1 Stationcheck_circle0 Availableaccount_circle0 In Useremove_circle0 Unavailable Non-networked,29585,https://www.plugshare.com/location/15823,15823
5749,41.181049,-73.193588,All Checkins (16),"https://www.google.com/maps/dir//45 Lyon Terrace Bridgeport, CT 06604","Bridgeport City Hall | Bridgeport, CT | EV Station",J-1772 1 Plug  kW 1 Stationcheck_circle0 Availableaccount_circle0 In Useremove_circle0 Unavailable Non-networked,30465,https://www.plugshare.com/location/15996,15996
5931,41.364463,-72.02537,All Checkins (104),"https://www.google.com/maps/dir//625 N Rd, Groton, CT 06340, USA","Mystic Marriott Hotel & Resorts | Groton, CT | EV Station",NACS (Tesla) 2 Plugs 13 kW 2 Stationscheck_circle0 Availableaccount_circle0 In Useremove_circle0 UnavailableTesla Destination Non-networked J-1772 4 Plugs  kW 4 Stationscheck_circle0 Availableaccount_circle0 In Useremove_circle0 UnavailableEV Range Non-networked,32935,https://www.plugshare.com/location/16487,16487
6112,41.46841,-72.955945,All Checkins (1),"https://www.google.com/maps/dir//43 Candee Road, Prospect, CT 06712, USA","Holiday Hill | Prospect, CT | EV Station",Wall 1 Plug  kW 1 Stationcheck_circle0 Availableaccount_circle0 In Useremove_circle0 Unavailable Non-networked,35110,https://www.plugshare.com/location/16925,16925
6164,41.282225,-73.492646,All Checkins (85),"https://www.google.com/maps/dir//80 E Ridge Rd, Ridgefield, CT 06877, USA","Ridgefield Playhouse | Ridgefield, CT | EV Station",J-1772 2 Plugs  kW 1 Stationcheck_circle0 Availableaccount_circle0 In Useremove_circle0 Unavailable Non-networked,36072,https://www.plugshare.com/location/17118,17118
6167,41.917684,-72.261188,All Checkins (1),"https://www.google.com/maps/dir//327 Ruby Rd, Willington, CT 06279, USA","Country Pride Rest Stop | Willington, CT | EV Station",Wall 1 Plug  kW 1 Stationcheck_circle0 Availableaccount_circle0 In Useremove_circle0 Unavailable Non-networked,36104,https://www.plugshare.com/location/17124,17124
6268,41.56494,-72.653137,All Checkins (6),"https://www.google.com/maps/dir//675 Main St, Middletown, CT 06457, USA","Community Health Center | Middletown, CT | EV Station",J-1772 1 Plug  kW 1 Stationcheck_circle0 Availableaccount_circle0 In Useremove_circle0 Unavailable Non-networked,37346,https://www.plugshare.com/location/17367,17367
6497,41.550423,-72.662354,All Checkins (128),"https://www.google.com/maps/dir//161 Cross Street, Middletown, Connecticut 06459-0413","Wesleyan University | Middletown, CT | EV Station",J-1772 2 Plugs  kW 2 Stationscheck_circle0 Availableaccount_circle0 In Useremove_circle0 Unavailable Non-networked,40275,https://www.plugshare.com/location/17921,17921
6514,41.9835,-73.422884,All Checkins (16),"https://www.google.com/maps/dir//1 Main St, Salisbury, CT 06068","Chaiwalla Tea Room | Salisbury, CT | EV Station",NACS (Tesla) 1 Plug  kW 1 Stationcheck_circle0 Availableaccount_circle0 In Useremove_circle0 Unavailable Non-networked J-1772 1 Plug  kW 1 Stationcheck_circle0 Availableaccount_circle0 In Useremove_circle0 Unavailable Non-networked,40501,https://www.plugshare.com/location/17963,17963
6725,41.1675746612982,-73.2334350049496,All Checkins (53),"https://www.google.com/maps/dir//930 Kings Hwy East, Fairfield, CT, 06825","Paul Miller Nissan | Fairfield, CT | EV Station",J-1772 1 Plug  kW 1 Stationcheck_circle0 Availableaccount_circle0 In Useremove_circle0 Unavailable Non-networked CHAdeMO 1 Plug  kW 1 Stationcheck_circle0 Availableaccount_circle0 In Useremove_circle0 UnavailableInCharge Non-networked CCS1 1 Plug  kW 1 Stationcheck_circle0 Availableaccount_circle0 In Useremove_circle0 UnavailableInCharge Non-networked,42936,https://www.plugshare.com/location/18421,18421
6726,41.7913885012021,-72.6566735306711,All Checkins (221),"https://www.google.com/maps/dir//165 W Service Rd, Hartford, CT 06120, USA","Harte Nissan | Hartford, CT | EV Station",J-1772 2 Plugs  kW 1 Stationcheck_circle0 Availableaccount_circle0 In Useremove_circle0 Unavailable Non-networked CHAdeMO 1 Plug  kW 1 Stationcheck_circle0 Availableaccount_circle0 In Useremove_circle0 UnavailableInCharge Non-networked CCS1 1 Plug  kW 1 Stationcheck_circle0 Availableaccount_circle0 In Useremove_circle0 UnavailableInCharge Non-networked,42943,https://www.plugshare.com/location/18422,18422
6727,41.814246,-72.508149,All Checkins (159),"https://www.google.com/maps/dir//30 Tolland Turnpike, Manchester, CT 06040","Manchester City Nissan | Manchester, CT | EV Station",J-1772 3 Plugs  kW 3 Stationscheck_circle0 Availableaccount_circle0 In Useremove_circle0 Unavailable Non-networked,42951,https://www.plugshare.com/location/18423,18423
6728,41.567391,-73.098872,All Checkins (214),"https://www.google.com/maps/dir//2191 Straits Turnpike, Middlebury, CT 06762","Crabtree Nissan | Middlebury, CT | EV Station",J-1772 2 Plugs  kW 2 Stationscheck_circle0 Availableaccount_circle0 In Useremove_circle0 Unavailable Non-networked CHAdeMO 2 Plugs 50 kW 2 Stationscheck_circle0 Availableaccount_circle0 In Useremove_circle0 Unavailable Non-networked CCS1 2 Plugs 50 kW 2 Stationscheck_circle0 Availableaccount_circle0 In Useremove_circle0 Unavailable Non-networked,42960,https://www.plugshare.com/location/18424,18424
6729,41.360564,-72.871042,All Checkins (179),"https://www.google.com/maps/dir//900 Universal Dr N, North Haven, CT 06473, USA","Executive Nissan | North Haven, CT | EV Station",J-1772 1 Plug  kW 1 Stationcheck_circle0 Availableaccount_circle0 In Useremove_circle0 Unavailable Non-networked CCS1 1 Plug 50 kW 1 Stationcheck_circle0 Availableaccount_circle0 In Useremove_circle0 UnavailableInCharge Non-networked CHAdeMO 1 Plug 50 kW 1 Stationcheck_circle0 Availableaccount_circle0 In Useremove_circle0 UnavailableInCharge Non-networked,348938,https://www.plugshare.com/location/18425,18425
6730,41.820304,-72.869278,All Checkins (24),"https://www.google.com/maps/dir//46 Albany Tpke., West Simsbury, CT 06092, USA","Hoffman Nissan - Service | Simsbury, CT | EV Station",J-1772 1 Plug  kW 1 Stationcheck_circle0 Availableaccount_circle0 In Useremove_circle0 Unavailable Non-networked,42982,https://www.plugshare.com/location/18427,18427
6827,41.058609,-73.542639,All Checkins (31),"https://www.google.com/maps/dir//1351 Washington Blvd Stamford, Connecticut 06901","1351 Washington Blvd Garage | Stamford, CT | EV Station",J-1772 2 Plugs  kW 2 Stationscheck_circle0 Availableaccount_circle0 In Useremove_circle0 Unavailable Non-networked,44387,https://www.plugshare.com/location/18700,18700
6902,41.417091,-73.406901,All Checkins (104),"https://www.google.com/maps/dir//116 Newtown Rd, Danbury, CT 06810, USA","La Quinta Inn & Suites by Wyndham | Danbury, CT | EV Station",J-1772 2 Plugs  kW 1 Stationcheck_circle0 Availableaccount_circle0 In Useremove_circle0 Unavailable Non-networked,45028,https://www.plugshare.com/location/18828,18828
7062,41.330619,-73.472456,All Checkins (49),"https://www.google.com/maps/dir//746 Danbury Rd, Ridgefield, CT 06877","BMW of Ridgefield (1) | Ridgefield, CT | EV Station",CHAdeMO 2 Plugs 62.5 kW 2 Stationscheck_circle2 Availableaccount_circle0 In Useremove_circle0 UnavailableChargePoint Non-networked CCS1 2 Plugs 62 kW 2 Stationscheck_circle2 Availableaccount_circle0 In Useremove_circle0 UnavailableChargePoint Non-networked,46778,https://www.plugshare.com/location/19183,19183
7119,41.4985011068319,-72.0979826122685,All Checkins (34),"https://www.google.com/maps/dir//691 W Thames St, Norwich, CT 06360, USA","Nissan of Norwich | Norwich, CT | EV Station",J-1772 2 Plugs  kW 2 Stationscheck_circle0 Availableaccount_circle0 In Useremove_circle0 Unavailable Non-networked CCS1 1 Plug  kW 1 Stationcheck_circle0 Availableaccount_circle0 In Useremove_circle0 UnavailableInCharge Non-networked CHAdeMO 1 Plug  kW 1 Stationcheck_circle0 Availableaccount_circle0 In Useremove_circle0 UnavailableInCharge Non-networked,47356,https://www.plugshare.com/location/19306,19306
7142,41.176329,-73.230217,All Checkins (11),"https://www.google.com/maps/dir//421 Tunxis Hill Rd., Fairfield, CT, 06825","Fairfield Mitsubishi | Fairfield, CT | EV Station",J-1772 1 Plug  kW 1 Stationcheck_circle0 Availableaccount_circle0 In Useremove_circle0 Unavailable Non-networked,47586,https://www.plugshare.com/location/19345,19345
7200,41.685878,-72.804456,All Checkins (12),"https://www.google.com/maps/dir//735 slater road, New Britain, CT","EC Goodwin Vocational Technical School | New Britain, CT | EV Station",J-1772 1 Plug  kW 1 Stationcheck_circle0 Availableaccount_circle0 In Useremove_circle0 Unavailable Non-networked,48229,https://www.plugshare.com/location/19474,19474
7201,41.784676,-72.602489,All Checkins (37),"https://www.google.com/maps/dir//734 Tolland St, East Hartford, CT, 06108","East Hartford Public School - Department of Facilities | East Hartford, CT | EV Station",J-1772 1 Plug  kW 1 Stationcheck_circle0 Availableaccount_circle0 In Useremove_circle0 Unavailable Non-networked,48241,https://www.plugshare.com/location/19476,19476
7203,41.051842,-73.534401,All Checkins (6),"https://www.google.com/maps/dir//263 Tresser Blvd, Stamford, CT, 06901","One Stamford Plaza | Stamford, CT | EV Station",J-1772 2 Plugs  kW 1 Stationcheck_circle0 Availableaccount_circle0 In Useremove_circle0 Unavailable Non-networked,48262,https://www.plugshare.com/location/19479,19479
7261,41.054659,-73.538284,All Checkins (10),"https://www.google.com/maps/dir//6-7 Landmark Square, Stamford, CT 06901, USA","Landmark Square Parking Garage | Stamford, CT | EV Station",J-1772 2 Plugs  kW 2 Stationscheck_circle0 Availableaccount_circle0 In Useremove_circle0 Unavailable Non-networked,49335,https://www.plugshare.com/location/19686,19686
7270,41.0681334385415,-73.5032174034271,All Checkins (336),"https://www.google.com/maps/dir//Darien Tpke Southbound, I-95, Darien, CT 06820, USA","Connecticut Welcome Center | Darien, CT | EV Station",NACS (Tesla) 12 Plugs 250 kW 12 Stationscheck_circle0 Availableaccount_circle0 In Useremove_circle0 UnavailableSupercharger Non-networked,49465,https://www.plugshare.com/location/19707,19707
7293,41.9098349628734,-73.0423972981129,All Checkins (16),"https://www.google.com/maps/dir//385 New Hartford Rd, Barkhamsted, CT 06063, USA","Lombard Ford | Barkhamsted, CT | EV Station",J-1772 1 Plug  kW 1 Stationcheck_circle0 Availableaccount_circle0 In Useremove_circle0 Unavailable Non-networked,49735,https://www.plugshare.com/location/19755,19755
7484,41.3352470397949,-72.9527053833008,All Checkins (34),"https://www.google.com/maps/dir//34 Wintergreen Ave, New Haven, CT 06515, USA","Southern Connecticut State University - Wintergreen Parking Garage | New Haven, CT | EV Station",J-1772 3 Plugs  kW 3 Stationscheck_circle0 Availableaccount_circle0 In Useremove_circle0 Unavailable Non-networked,52831,https://www.plugshare.com/location/20322,20322
7487,41.717449,-72.239639,All Checkins (9),"https://www.google.com/maps/dir//185 Recycling Way, Willimantic, CT 06226, USA","Willimantic Waste Paper & Recycling | Windham, CT | EV Station",Wall 2 Plugs  kW 2 Stationscheck_circle0 Availableaccount_circle0 In Useremove_circle0 Unavailable Non-networked J-1772 2 Plugs  kW 2 Stationscheck_circle0 Availableaccount_circle0 In Useremove_circle0 Unavailable Non-networked,52967,https://www.plugshare.com/location/20347,20347
7536,41.475449,-71.960471,All Checkins (146),"https://www.google.com/maps/dir//350 Trolley Line Blvd, Mashantucket, CT 06338, USA","Grand Pequot Tower Garage - Foxwoods Self Parking | Ledyard, CT | EV Station",J-1772 2 Plugs 6.48 kW 1 Stationcheck_circle0 Availableaccount_circle2 In Useremove_circle0 UnavailableChargePoint Non-networked,53767,https://www.plugshare.com/location/20492,20492
7600,41.918649,-72.672572,All Checkins (11),"https://www.google.com/maps/dir//24 Ella Grasso Turnpike, Windsor Locks, CT 06096, USA","LAZ Fly Premier Valet Parking | Windsor Locks, CT | EV Station",J-1772 2 Plugs  kW 1 Stationcheck_circle0 Availableaccount_circle0 In Useremove_circle0 UnavailableEpic Charging Non-networked,54852,https://www.plugshare.com/location/20705,20705
59506,41.4728587904368,-72.1175126015408,All Checkins (5),"https://www.google.com/maps/dir//395 I-395, Montville, CT 06382","I-395 SB Service Plaza (Coming Soon) | Montville, CT | EV Station",CHAdeMO 2 Plugs  kW 2 Stationscheck_circle0 Availableaccount_circle0 In Useremove_circle0 UnavailableApplegreen Electric Non-networked CCS1 2 Plugs  kW 2 Stationscheck_circle0 Availableaccount_circle0 In Useremove_circle0 UnavailableApplegreen Electric Non-networked,220135,https://www.plugshare.com/location/506833,506833
60402,41.1999177374693,1.56782291829586,All Checkins (2),"https://www.google.com/maps/dir//El Carrer del Clos del Becu, 1, 43820 Calafell, Tarragona, España","Calafell - ETECNIC Charging Station | Calafell, CT | EV Station",CCS2 1 Plug  kW 1 Stationcheck_circle0 Availableaccount_circle0 In Useremove_circle0 Unavailableevcharging Non-networked Type 2 1 Plug  kW 1 Stationcheck_circle0 Availableaccount_circle0 In Useremove_circle0 Unavailableevcharging Non-networked CHAdeMO 1 Plug  kW 1 Stationcheck_circle0 Availableaccount_circle0 In Useremove_circle0 Unavailableevcharging Non-networked,220695,https://www.plugshare.com/location/507848,507848
60533,44.2310503175223,28.5844275355339,All Checkins (20),"https://www.google.com/maps/dir//România, Constanța, DN2A km. Ovidiu, Strada Națională Nr.1 Bis","EV Point Energy Automobile Bavaria Constanța | Ovidiu, CT | EV Station",CCS2 1 Plug 50 kW 1 Stationcheck_circle0 Availableaccount_circle0 In Useremove_circle0 UnavailableEV Point Non-networked CHAdeMO 1 Plug 50 kW 1 Stationcheck_circle0 Availableaccount_circle0 In Useremove_circle0 UnavailableEV Point Non-networked Type 2 1 Plug 22 kW 1 Stationcheck_circle0 Availableaccount_circle0 In Useremove_circle0 UnavailableEV Point Non-networked,220811,https://www.plugshare.com/location/508047,508047
60778,42.429015,1.922863,All Checkins (0),"https://www.google.com/maps/dir//Carrer Polígon Industrial Sector Estació, Puigcerdà, GI, 17520, Spain","Volkswagen Puigcerdà | Puigcerdà, CT | EV Station",Type 2 1 Plug 11 kW 1 Stationcheck_circle0 Availableaccount_circle0 In Useremove_circle0 UnavailableVolkswagen Group Charging Non-networked CCS2 1 Plug 22 kW 1 Stationcheck_circle0 Availableaccount_circle0 In Useremove_circle0 UnavailableVolkswagen Group Charging Non-networked,221023,https://www.plugshare.com/location/508460,508460
60834,41.8043499118345,-72.8172821934602,All Checkins (3),"https://www.google.com/maps/dir//279 Avon Mountain Rd, Avon, CT 06001, USA","Avon Old Farms | Avon, CT | EV Station",J-1772 2 Plugs 7.68 kW 2 Stationscheck_circle2 Availableaccount_circle0 In Useremove_circle0 UnavailableEvGateway Non-networked,221069,https://www.plugshare.com/location/508554,508554
60835,41.7265599289505,-72.8263529337296,All Checkins (8),"https://www.google.com/maps/dir//827 Farmington Ave, Farmington, CT 06032, USA","The Farmington Inn & Suites | Farmington, CT | EV Station",J-1772 2 Plugs 7.68 kW 2 Stationscheck_circle1 Availableaccount_circle0 In Useremove_circle1 UnavailableEvGateway Non-networked,381375,https://www.plugshare.com/location/508556,508556
60836,41.8735078349689,-72.803397610479,All Checkins (5),"https://www.google.com/maps/dir//731 Hopmeadow St, Simsbury, CT 06070, USA","Simsbury 1820 House | Simsbury, CT | EV Station",J-1772 4 Plugs 7.68 kW 4 Stationscheck_circle4 Availableaccount_circle0 In Useremove_circle0 UnavailableEvGateway Non-networked,402456,https://www.plugshare.com/location/508558,508558
60838,41.852034420891,-72.8149346262217,All Checkins (6),"https://www.google.com/maps/dir//397 Hopmeadow St, Weatogue, CT 06089, USA","The Simsbury Inn | Simsbury, CT | EV Station",J-1772 2 Plugs 7.68 kW 2 Stationscheck_circle2 Availableaccount_circle0 In Useremove_circle0 UnavailableEvGateway Non-networked,221071,https://www.plugshare.com/location/508560,508560
61170,41.514238939097,-72.8988435665261,All Checkins (0),"https://www.google.com/maps/dir//696 Maple Avenue, Cheshire, CT 06410","Cumberland Farms | Cheshire, CT | EV Station",Wall 1 Plug  kW 1 Stationcheck_circle0 Availableaccount_circle0 In Useremove_circle0 Unavailable Non-networked,221183,https://www.plugshare.com/location/509071,509071
61442,41.0601405,-73.537858,All Checkins (2),https://www.google.com/maps/dir//720 Bedford st Stamford CT 06901,"Stamford Suites Hotel | Stamford, CT | EV Station",J-1772 2 Plugs  kW 2 Stationscheck_circle0 Availableaccount_circle0 In Useremove_circle0 Unavailable Non-networked,221395,https://www.plugshare.com/location/509446,509446
61761,44.1777757531613,28.6371454187675,All Checkins (15),https://www.google.com/maps/dir//Aleea Garofitei,"Piata Balada | Constanța, CT | EV Station",Type 2 2 Plugs  kW 1 Stationcheck_circle0 Availableaccount_circle0 In Useremove_circle0 Unavailable Non-networked,221666,https://www.plugshare.com/location/509995,509995
61851,41.104676,-73.432036,All Checkins (2),"https://www.google.com/maps/dir//200 US-1, Norwalk, CT 06854, USA","200 Connecticut Ave - Visitor Parking | Norwalk, CT | EV Station",J-1772 2 Plugs 6.48 kW 1 Stationcheck_circle2 Availableaccount_circle0 In Useremove_circle0 UnavailableChargePoint Non-networked,221738,https://www.plugshare.com/location/510143,510143
62117,41.2863108843484,-72.8774430348141,All Checkins (12),"https://www.google.com/maps/dir//96 Frontage Rd N, East Haven, CT 06512, USA","East Haven Mall | East Haven, CT | EV Station",NACS (Tesla) 12 Plugs 250 kW 12 Stationscheck_circle0 Availableaccount_circle0 In Useremove_circle0 UnavailableSupercharger Non-networked,221951,https://www.plugshare.com/location/510563,510563
62605,41.31018,-72.93519,All Checkins (1),"https://www.google.com/maps/dir//80 Howe St, New Haven, CT 06511, USA","Chelsea Company Management LLC | New Haven, CT | EV Station",J-1772 2 Plugs 6.48 kW 1 Stationcheck_circle2 Availableaccount_circle0 In Useremove_circle0 UnavailableChargePoint Non-networked,222358,https://www.plugshare.com/location/511132,511132
62716,41.3744121833939,2.07216940820217,All Checkins (0),"https://www.google.com/maps/dir//C. d'Oriol Martorell, 83, 08970 Sant Joan Despí, Barcelona, Spain","Wallbox | Sant Joan Despí, CT | EV Station",CCS2 1 Plug  kW 1 Stationcheck_circle0 Availableaccount_circle0 In Useremove_circle0 Unavailable Non-networked CHAdeMO 1 Plug  kW 1 Stationcheck_circle0 Availableaccount_circle0 In Useremove_circle0 Unavailable Non-networked,222447,https://www.plugshare.com/location/511291,511291
62763,41.4325779276706,2.20530319958925,All Checkins (0),"https://www.google.com/maps/dir//Carrer de Fra Juníper Serra, 44B, 08030 Barcelona, Spain","Ingeteam Repsol | Barcelona, CT | EV Station",CCS2 1 Plug  kW 1 Stationcheck_circle0 Availableaccount_circle0 In Useremove_circle0 Unavailable Non-networked CHAdeMO 1 Plug  kW 1 Stationcheck_circle0 Availableaccount_circle0 In Useremove_circle0 Unavailable Non-networked Type 2 1 Plug  kW 1 Stationcheck_circle0 Availableaccount_circle0 In Useremove_circle0 Unavailable Non-networked,222486,https://www.plugshare.com/location/511354,511354
63300,43.8187538,28.5726514,All Checkins (2),https://www.google.com/maps/dir//Matei Basarab nr 59,"Casa Linte | Mangalia, CT | EV Station",Type 2 1 Plug  kW 1 Stationcheck_circle0 Availableaccount_circle0 In Useremove_circle0 Unavailable Non-networked,222938,https://www.plugshare.com/location/512208,512208
63411,21.110244674198,81.0934000834823,All Checkins (14),"https://www.google.com/maps/dir//436V+6F9, NH-6, Rajnandgaon, Chhattisgarh 491441, India","Sairam Automobiles Services Pvt limited | Rajnandgaon, CT | EV Station",CCS2 1 Plug  kW 1 Stationcheck_circle0 Availableaccount_circle0 In Useremove_circle0 UnavailableTata Power Non-networked,223031,https://www.plugshare.com/location/512371,512371
63773,41.576343,-72.671739,All Checkins (0),"https://www.google.com/maps/dir//634 Newfield St, Middletown, CT 06457, USA","Middletown Toyota | Middletown, CT | EV Station",J-1772 4 Plugs 6.48 kW 2 Stationscheck_circle2 Availableaccount_circle0 In Useremove_circle0 UnavailableChargePoint Non-networked,223325,https://www.plugshare.com/location/512921,512921
64011,41.8423551214863,-72.638987749815,All Checkins (4),"https://www.google.com/maps/dir//4 Batchelder Rd, Windsor, CT 06095, USA","Loomis Chaffee School - Katharine Brush Library | Windsor, CT | EV Station",J-1772 2 Plugs  kW 2 Stationscheck_circle0 Availableaccount_circle0 In Useremove_circle0 Unavailable Non-networked,402994,https://www.plugshare.com/location/513454,513454
64196,41.2889508691393,-72.8861952423279,All Checkins (23),"https://www.google.com/maps/dir//115 Peat Meadow Rd, New Haven, CT 06512, USA","Brandfon Hyundai | New Haven, CT | EV Station",J-1772 2 Plugs 12 kW 2 Stationscheck_circle2 Availableaccount_circle0 In Useremove_circle0 UnavailableChargePoint Non-networked CCS1 2 Plugs 62 kW 2 Stationscheck_circle2 Availableaccount_circle0 In Useremove_circle0 UnavailableChargePoint Non-networked CHAdeMO 2 Plugs 62.5 kW 2 Stationscheck_circle2 Availableaccount_circle0 In Useremove_circle0 UnavailableChargePoint Non-networked,223659,https://www.plugshare.com/location/513716,513716
64544,41.5962891461333,-72.877105884254,All Checkins (113),"https://www.google.com/maps/dir//255 Main St, Southington CT 06489, United States","Southington Public Library  | Southington, CT | EV Station",J-1772 2 Plugs  kW 1 Stationcheck_circle0 Availableaccount_circle0 In Useremove_circle0 Unavailable Non-networked,389951,https://www.plugshare.com/location/84577,84577
64545,41.606376,-72.878974,All Checkins (182),"https://www.google.com/maps/dir//196 N Main St, Southington, CT 06489, USA","Southington Municipal Center | Southington, CT | EV Station",J-1772 2 Plugs  kW 1 Stationcheck_circle0 Availableaccount_circle0 In Useremove_circle0 Unavailable Non-networked,389952,https://www.plugshare.com/location/84578,84578
66439,42.182963,2.484247,All Checkins (0),"https://www.google.com/maps/dir//Passeig Ramon Guillamet, 10-12, 17800 Olot, Girona","Parquing Centre Olot | Olot, CT | EV Station",Wall (Euro) 1 Plug  kW 1 Stationcheck_circle0 Availableaccount_circle0 In Useremove_circle0 Unavailable Non-networked Type 2 1 Plug  kW 1 Stationcheck_circle0 Availableaccount_circle0 In Useremove_circle0 Unavailable Non-networked,331744,https://www.plugshare.com/location/84683,84683
66454,41.114073,1.155996,All Checkins (10),"https://www.google.com/maps/dir//43480‎ Vila-Seca‎ Catalonia, Spain","Repsol Vilaseca | Vila-seca, CT | EV Station",CHAdeMO 1 Plug 50 kW 1 Stationcheck_circle0 Availableaccount_circle0 In Useremove_circle0 Unavailable Non-networked CCS2 1 Plug 50 kW 1 Stationcheck_circle0 Availableaccount_circle0 In Useremove_circle0 Unavailable Non-networked Type 2 1 Plug 43 kW 1 Stationcheck_circle0 Availableaccount_circle0 In Useremove_circle0 Unavailable Non-networked,331758,https://www.plugshare.com/location/84723,84723
66624,41.282144,-72.631426,All Checkins (5),"https://www.google.com/maps/dir//191 Boston Post Rd, Madison CT 06443, United States","Hammonasset Ford | Madison, CT | EV Station",J-1772 1 Plug  kW 1 Stationcheck_circle0 Availableaccount_circle0 In Useremove_circle0 Unavailable Non-networked,331884,https://www.plugshare.com/location/85161,85161
66643,41.178102,-73.181651,All Checkins (61),"https://www.google.com/maps/dir//275 E Main St Bridgeport, CT 06608, USA","Steelpointe Harbor | Bridgeport, CT | EV Station",J-1772 4 Plugs 6.24 kW 4 Stationscheck_circle0 Availableaccount_circle0 In Useremove_circle4 UnavailableBlink Non-networked,331901,https://www.plugshare.com/location/85206,85206
66651,41.560642,2.005919,All Checkins (2),"https://www.google.com/maps/dir//Plaça Progrés, Terrassa, Catalunya","Parking FacilPk | Terrassa, CT | EV Station",Wall (Euro) 1 Plug  kW 1 Stationcheck_circle0 Availableaccount_circle0 In Useremove_circle0 Unavailable Non-networked,331908,https://www.plugshare.com/location/85224,85224
66747,41.712445,-72.211847,All Checkins (76),"https://www.google.com/maps/dir//38 Church St, Willimantic, CT 06226, USA","Arthur W Crosbie Municipal Parking | Windham, CT | EV Station",J-1772 2 Plugs  kW 2 Stationscheck_circle0 Availableaccount_circle0 In Useremove_circle0 Unavailable Non-networked,331978,https://www.plugshare.com/location/85380,85380
66816,38.906883,-77.042328,All Checkins (19),"https://www.google.com/maps/dir//1250 Connecticut Avenue NW, Washington, DC 20036, USA","1250 Connecticut Ave Building | Washington, DC | EV Station",J-1772 2 Plugs 6.24 kW 2 Stationscheck_circle1 Availableaccount_circle0 In Useremove_circle1 UnavailableBlink Non-networked,332002,https://www.plugshare.com/location/85456,85456
66897,41.822937,-72.713431,All Checkins (47),"https://www.google.com/maps/dir//330 Park Ave, Bloomfield, CT 06002, USA","Alvin B Wood Human Services Center | Bloomfield, CT | EV Station",J-1772 3 Plugs 6.24 - 11.52 kW 3 Stationscheck_circle2 Availableaccount_circle0 In Useremove_circle1 UnavailableBlink Non-networked,332057,https://www.plugshare.com/location/85598,85598
66901,41.771328,-72.967316,All Checkins (68),"https://www.google.com/maps/dir//268 Spielman Hwy, Burlington CT 06013, United States","Burlington Public Library | Burlington, CT | EV Station",J-1772 2 Plugs  kW 2 Stationscheck_circle0 Availableaccount_circle0 In Useremove_circle0 Unavailable Non-networked,332060,https://www.plugshare.com/location/85612,85612
66905,41.609631,2.285038,All Checkins (2),"https://www.google.com/maps/dir//Carrer del Rec, 28, 08401‎ Granollers‎ Catalunya, Espanya","Estabanell Granollers | Granollers, CT | EV Station",Wall (Euro) 2 Plugs  kW 2 Stationscheck_circle0 Availableaccount_circle0 In Useremove_circle0 Unavailable Non-networked,332065,https://www.plugshare.com/location/85623,85623
69322,40.809874,0.513317,All Checkins (0),"https://www.google.com/maps/dir//Carretera de València, 12–18, 43500‎ Tortosa‎ Catalonië, Spanje","Renault Tortosa (22kW) | Tortosa, CT | EV Station",Type 2 2 Plugs  kW 1 Stationcheck_circle0 Availableaccount_circle0 In Useremove_circle0 Unavailable Non-networked Wall (Euro) 2 Plugs  kW 2 Stationscheck_circle0 Availableaccount_circle0 In Useremove_circle0 Unavailable Non-networked,390103,https://www.plugshare.com/location/86305,86305
69324,41.087584,1.15234,All Checkins (2),"https://www.google.com/maps/dir//Port Aventura, 43840‎ Salou‎, Catalunya","Port Aventura - ETECNIC | Salou, CT | EV Station",Type 2 2 Plugs  kW 2 Stationscheck_circle0 Availableaccount_circle0 In Useremove_circle0 Unavailable Non-networked Wall (Euro) 2 Plugs  kW 2 Stationscheck_circle0 Availableaccount_circle0 In Useremove_circle0 Unavailable Non-networked,332343,https://www.plugshare.com/location/86307,86307
69325,41.1331263537996,1.20370047850417,All Checkins (0),"https://www.google.com/maps/dir//Carrer Josep María Folch i Torres, 12, 43006‎ Tarragona‎ Catalonië, Spanje","Renault Tarragona | Tarragona, CT | EV Station",Type 2 1 Plug  kW 1 Stationcheck_circle0 Availableaccount_circle0 In Useremove_circle0 Unavailable Non-networked Wall (Euro) 1 Plug  kW 1 Stationcheck_circle0 Availableaccount_circle0 In Useremove_circle0 Unavailable Non-networked,332344,https://www.plugshare.com/location/86309,86309
69326,41.234646,1.803804,All Checkins (1),"https://www.google.com/maps/dir//Avinguda de Sofia, 10–12, 08870‎ Sitges‎ Catalonië, Spanje","Parking Souterrain de L'Hôtel Avenida Sofia | Sitges, CT | EV Station",Type 2 3 Plugs 22 kW 3 Stationscheck_circle0 Availableaccount_circle0 In Useremove_circle0 UnavailableTesla Destination Non-networked,332345,https://www.plugshare.com/location/86311,86311
69327,41.236389,1.814613,All Checkins (0),"https://www.google.com/maps/dir//Carrer del Port d'Alegre, 53, 08870‎ Sitges‎ Catalonië, Spanje","Hotel San Sebastián Playa | Sitges, CT | EV Station",Type 2 1 Plug  kW 1 Stationcheck_circle0 Availableaccount_circle0 In Useremove_circle0 Unavailable Non-networked Wall (Euro) 1 Plug  kW 1 Stationcheck_circle0 Availableaccount_circle0 In Useremove_circle0 Unavailable Non-networked,332346,https://www.plugshare.com/location/86312,86312
69328,42.131546,3.121791,All Checkins (1),"https://www.google.com/maps/dir//Camí dels Enamorats, 17130‎ L'Escala‎ Catalonië, Spanje","Hotel Empuries | L'Escala, CT | EV Station",Type 2 3 Plugs 11 kW 3 Stationscheck_circle0 Availableaccount_circle0 In Useremove_circle0 UnavailableTesla Destination Non-networked Wall (Euro) 1 Plug  kW 1 Stationcheck_circle0 Availableaccount_circle0 In Useremove_circle0 Unavailable Non-networked,390104,https://www.plugshare.com/location/86313,86313
69329,42.267397,2.990281,All Checkins (7),"https://www.google.com/maps/dir//Carretera de Roses, 47, 17600‎ Figueres‎ Catalonië, Spanje","Nissan Figueres | Vilatenim, CT | EV Station",CHAdeMO 1 Plug 50 kW 1 Stationcheck_circle0 Availableaccount_circle0 In Useremove_circle0 Unavailable Non-networked Type 2 1 Plug  kW 1 Stationcheck_circle0 Availableaccount_circle0 In Useremove_circle0 Unavailable Non-networked,332347,https://www.plugshare.com/location/86314,86314
69330,41.936254,2.798735,All Checkins (0),"https://www.google.com/maps/dir//Carretera N-II, 17458‎ Fornells de la Selva‎ Catalonië, Spanje","Renault Santiago Juando | Fornells de la Selva, CT | EV Station",Type 2 1 Plug  kW 1 Stationcheck_circle0 Availableaccount_circle0 In Useremove_circle0 Unavailable Non-networked Wall (Euro) 1 Plug  kW 1 Stationcheck_circle0 Availableaccount_circle0 In Useremove_circle0 Unavailable Non-networked,332348,https://www.plugshare.com/location/86317,86317
69380,40.86526,0.778956,All Checkins (0),"https://www.google.com/maps/dir//43860‎ L'Ametlla de Mar‎ Catalonië, Spanje","Camping Ametlla Vilage Platja | L'Ametlla de Mar, CT | EV Station",Wall (Euro) 1 Plug  kW 1 Stationcheck_circle0 Availableaccount_circle0 In Useremove_circle0 Unavailable Non-networked,332389,https://www.plugshare.com/location/86427,86427
69620,41.046223,-73.56724,All Checkins (27),"https://www.google.com/maps/dir//1800 E Putnam Ave, Old Greenwich, CT 06870, USA","Hyatt Motel Greenwich | Greenwich, CT | EV Station",NACS (Tesla) 2 Plugs 16 kW 2 Stationscheck_circle0 Availableaccount_circle0 In Useremove_circle0 UnavailableTesla Destination Non-networked J-1772 1 Plug  kW 1 Stationcheck_circle0 Availableaccount_circle0 In Useremove_circle0 Unavailable Non-networked,332422,https://www.plugshare.com/location/86480,86480
69644,41.696794,-73.203389,All Checkins (2),"https://www.google.com/maps/dir//155 Alain White Rd, Morris, CT, United States, 06763","Winvian Farm | Morris, CT | EV Station",NACS (Tesla) 2 Plugs 16 kW 2 Stationscheck_circle0 Availableaccount_circle0 In Useremove_circle0 UnavailableTesla Destination Non-networked,332438,https://www.plugshare.com/location/86506,86506
69889,41.150323,1.110656,All Checkins (0),"https://www.google.com/maps/dir//Avinguda del Carrilet, 39, 43204‎ Reus‎ Catalonië, Spanje","Carrilet Parking | Reus, CT | EV Station",Type 2 2 Plugs  kW 1 Stationcheck_circle0 Availableaccount_circle0 In Useremove_circle0 Unavailable Non-networked,332535,https://www.plugshare.com/location/86665,86665
69890,41.153276,1.109912,All Checkins (0),"https://www.google.com/maps/dir//Carrer Mare Teresa Guasch, 1–5, 43204‎ Reus‎ Catalonië, Spanje","Baluard Parking | Reus, CT | EV Station",Type 2 2 Plugs  kW 1 Stationcheck_circle0 Availableaccount_circle0 In Useremove_circle0 Unavailable Non-networked,332536,https://www.plugshare.com/location/86666,86666
69891,41.14992,1.105903,All Checkins (0),"https://www.google.com/maps/dir//Plaça de la Pastoreta-2090-, 10, 43202‎ Reus‎ Catalonië, Spanje","Pastoreta Parking | Reus, CT | EV Station",Type 2 2 Plugs  kW 1 Stationcheck_circle0 Availableaccount_circle0 In Useremove_circle0 Unavailable Non-networked,332537,https://www.plugshare.com/location/86668,86668
69892,41.15636,1.102386,All Checkins (0),"https://www.google.com/maps/dir//Carrer de Sant Joan, 33, 43201‎ Reus‎ Catalonië, Spanje","Oques Parking | Reus, CT | EV Station",Type 2 2 Plugs  kW 1 Stationcheck_circle0 Availableaccount_circle0 In Useremove_circle0 Unavailable Non-networked Wall (Euro) 2 Plugs  kW 2 Stationscheck_circle0 Availableaccount_circle0 In Useremove_circle0 Unavailable Non-networked,332538,https://www.plugshare.com/location/86669,86669
69893,41.154182,1.101522,All Checkins (0),"https://www.google.com/maps/dir//Carrer del Doctor Frías, 2, 43202‎ Reus‎ Catalonië, Spanje","Passeig Prim Parking | Reus, CT | EV Station",Type 2 2 Plugs  kW 1 Stationcheck_circle0 Availableaccount_circle0 In Useremove_circle0 Unavailable Non-networked,332539,https://www.plugshare.com/location/86670,86670
69894,41.158024,1.100914,All Checkins (0),"https://www.google.com/maps/dir//Passeig de Sunyer, 32, 43202‎ Reus‎ Catalonië, Spanje","Renault Reus | Reus, CT | EV Station",Type 2 1 Plug  kW 1 Stationcheck_circle0 Availableaccount_circle0 In Useremove_circle0 Unavailable Non-networked Wall (Euro) 1 Plug  kW 1 Stationcheck_circle0 Availableaccount_circle0 In Useremove_circle0 Unavailable Non-networked,332540,https://www.plugshare.com/location/86671,86671
69895,41.159079,1.102787,All Checkins (0),"https://www.google.com/maps/dir//Carrer de Joan Martell, 17–21, 43202‎ Reus‎ Catalonië, Spanje","Sant Ferran Parking | Reus, CT | EV Station",Type 2 2 Plugs  kW 1 Stationcheck_circle0 Availableaccount_circle0 In Useremove_circle0 Unavailable Non-networked Wall (Euro) 2 Plugs  kW 2 Stationscheck_circle0 Availableaccount_circle0 In Useremove_circle0 Unavailable Non-networked,390150,https://www.plugshare.com/location/86672,86672
69896,41.157888,1.105376,All Checkins (6),"https://www.google.com/maps/dir//Carrer Ample, 2, 43201‎ Reus‎ Catalonië, Spanje","Carrer Ample | Reus, CT | EV Station",Type 2 1 Plug 43 kW 1 Stationcheck_circle0 Availableaccount_circle0 In Useremove_circle0 Unavailable Non-networked CHAdeMO 1 Plug 50 kW 1 Stationcheck_circle0 Availableaccount_circle0 In Useremove_circle0 Unavailable Non-networked CCS2 1 Plug 50 kW 1 Stationcheck_circle0 Availableaccount_circle0 In Useremove_circle0 Unavailable Non-networked,390151,https://www.plugshare.com/location/86673,86673
69897,41.15903,1.106936,All Checkins (0),"https://www.google.com/maps/dir//Avinguda de Sant Jordi, 43201‎ Reus‎ Catalonië, Spanje","Llibertat Parking | Reus, CT | EV Station",Type 2 4 Plugs  kW 2 Stationscheck_circle0 Availableaccount_circle0 In Useremove_circle0 Unavailable Non-networked,332541,https://www.plugshare.com/location/86674,86674
69899,41.162139,1.110904,All Checkins (0),"https://www.google.com/maps/dir//43201‎ Reus‎ Catalonië, Spanje","Fira Parking | Reus, CT | EV Station",Type 2 2 Plugs  kW 1 Stationcheck_circle0 Availableaccount_circle0 In Useremove_circle0 Unavailable Non-networked Wall (Euro) 2 Plugs  kW 2 Stationscheck_circle0 Availableaccount_circle0 In Useremove_circle0 Unavailable Non-networked,332543,https://www.plugshare.com/location/86676,86676
69900,41.162739,1.071377,All Checkins (0),"https://www.google.com/maps/dir//Carrer de Joan Fuster, 12, 43206‎ Reus‎ Catalonië, Spanje","ES Entreauto (11kW) | Reus, CT | EV Station",Type 2 1 Plug  kW 1 Stationcheck_circle0 Availableaccount_circle0 In Useremove_circle0 Unavailable Non-networked Wall (Euro) 1 Plug  kW 1 Stationcheck_circle0 Availableaccount_circle0 In Useremove_circle0 Unavailable Non-networked,332544,https://www.plugshare.com/location/86677,86677
69913,42.358822,1.464665,All Checkins (0),"https://www.google.com/maps/dir//Avinguda Cami Rol de Cerdanya, 10–14, 25700‎ La Seu D'urgell‎ Catalonië, Spanje","Caravanas Seu d'Urgell Parking | La Seu d'Urgell, CT | EV Station",Wall (Euro) 9 Plugs  kW 9 Stationscheck_circle0 Availableaccount_circle0 In Useremove_circle0 Unavailable Non-networked,332554,https://www.plugshare.com/location/86692,86692
69914,42.358501,1.462015,All Checkins (1),"https://www.google.com/maps/dir//Carrer de Sant Domènec, 9–17, 25700‎ La Seu D'urgell‎ Catalonië, Spanje","Hotel Parador de Seu d'Urgell | La Seu d'Urgell, CT | EV Station",Type 3 1 Plug  kW 1 Stationcheck_circle0 Availableaccount_circle0 In Useremove_circle0 Unavailable Non-networked,332555,https://www.plugshare.com/location/86693,86693
69915,42.371302,1.735964,All Checkins (0),"https://www.google.com/maps/dir//Carretera de Lleida a Puigcerdà, 25727‎ Prullans‎ Catalonië, Spanje","Camping Cerdanya Resort | Prullans, CT | EV Station",Wall (Euro) 1 Plug  kW 1 Stationcheck_circle0 Availableaccount_circle0 In Useremove_circle0 Unavailable Non-networked,332556,https://www.plugshare.com/location/86694,86694
69916,42.16411,2.471909,All Checkins (5),"https://www.google.com/maps/dir//Avinguda de Santa Coloma, s/n, 17178 Les Preses (Olot), Girona, Spain","Nissan Olot Motor | Olot, CT | EV Station",CHAdeMO 1 Plug 50 kW 1 Stationcheck_circle0 Availableaccount_circle0 In Useremove_circle0 Unavailable Non-networked,332557,https://www.plugshare.com/location/86695,86695
69918,42.248763,2.956371,All Checkins (0),"https://www.google.com/maps/dir//Calle de la Mare de Due del Mont, 17740‎ Figueres‎ Catalonië, Spanje","Ensto | Les Forques, CT | EV Station",Type 2 1 Plug  kW 1 Stationcheck_circle0 Availableaccount_circle0 In Useremove_circle0 Unavailable Non-networked,332558,https://www.plugshare.com/location/86698,86698
69919,41.931473,2.794642,All Checkins (2),"https://www.google.com/maps/dir//Carretera N-II, 17458‎ Fornells de la Selva‎ Catalonië, Spain","Nissan Camps Motor (40kW) | Fornells de la Selva, CT | EV Station",CHAdeMO 1 Plug 50 kW 1 Stationcheck_circle0 Availableaccount_circle0 In Useremove_circle0 Unavailable Non-networked Wall (Euro) 1 Plug  kW 1 Stationcheck_circle0 Availableaccount_circle0 In Useremove_circle0 Unavailable Non-networked,332559,https://www.plugshare.com/location/86699,86699
69920,41.612873,0.648451,All Checkins (1),"https://www.google.com/maps/dir//Carretera Nacional II, 19, 25001‎ Lleida","Renault | Lérida, CT | EV Station",Type 2 1 Plug  kW 1 Stationcheck_circle0 Availableaccount_circle0 In Useremove_circle0 Unavailable Non-networked Wall (Euro) 1 Plug  kW 1 Stationcheck_circle0 Availableaccount_circle0 In Useremove_circle0 Unavailable Non-networked,332561,https://www.plugshare.com/location/86700,86700
69921,41.623424,0.665061,All Checkins (0),"https://www.google.com/maps/dir//Carrer Josep Segura Farre, 719, 25191‎ Lerida‎ Catalonië, Spanje","Nissan | Lleida, CT | EV Station",CHAdeMO 1 Plug 50 kW 1 Stationcheck_circle0 Availableaccount_circle0 In Useremove_circle0 Unavailable Non-networked,332562,https://www.plugshare.com/location/86701,86701
69923,41.406645,2.218415,All Checkins (2),"https://www.google.com/maps/dir//08019‎ Barcelona‎ Catalonië, Spanje","Garcia Fària Parking | Barcelona, CT | EV Station",Type 2 4 Plugs  kW 2 Stationscheck_circle0 Availableaccount_circle0 In Useremove_circle0 Unavailable Non-networked Wall (Euro) 4 Plugs  kW 4 Stationscheck_circle0 Availableaccount_circle0 In Useremove_circle0 Unavailable Non-networked,332564,https://www.plugshare.com/location/86703,86703
70007,41.308979,-72.93288,All Checkins (10),"https://www.google.com/maps/dir//1157 Chapel St, New Haven, CT, United States, 06511","The Study at Yale | New Haven, CT | EV Station",NACS (Tesla) 1 Plug 8 kW 1 Stationcheck_circle0 Availableaccount_circle0 In Useremove_circle0 UnavailableTesla Destination Non-networked J-1772 1 Plug  kW 1 Stationcheck_circle0 Availableaccount_circle0 In Useremove_circle0 Unavailable Non-networked,332627,https://www.plugshare.com/location/86865,86865
70425,41.370589,2.170855,All Checkins (2),"https://www.google.com/maps/dir//Plaza Carlos Ibanez, 3, Barcelona, Spain, 8038","Hotel Miramar Barcelona  | Barcelona, CT | EV Station",Type 2 1 Plug 22 kW 1 Stationcheck_circle0 Availableaccount_circle0 In Useremove_circle0 UnavailableTesla Destination Non-networked,390228,https://www.plugshare.com/location/87391,87391
72378,41.764014,-73.070286,All Checkins (31),"https://www.google.com/maps/dir//100 Bentley Dr, Harwinton, CT 06791, USA","Harwinton Town Hall | Harwinton, CT | EV Station",J-1772 2 Plugs 6.48 kW 1 Stationcheck_circle2 Availableaccount_circle0 In Useremove_circle0 UnavailableChargePoint Non-networked,332952,https://www.plugshare.com/location/87603,87603
73104,41.340014,2.125991,All Checkins (0),"https://www.google.com/maps/dir//41.34007, 2.12582","Zona Franca 1 | Barcelona, CT | EV Station",Wall (Euro) 1 Plug  kW 1 Stationcheck_circle0 Availableaccount_circle0 In Useremove_circle0 Unavailable Non-networked,333071,https://www.plugshare.com/location/87853,87853
73105,41.340239,2.125133,All Checkins (0),"https://www.google.com/maps/dir//41.34007, 2.12582","Zona Franca 2 | Barcelona, CT | EV Station",Wall (Euro) 1 Plug  kW 1 Stationcheck_circle0 Availableaccount_circle0 In Useremove_circle0 Unavailable Non-networked,333072,https://www.plugshare.com/location/87854,87854
73570,41.162537,-73.267729,All Checkins (4),"https://www.google.com/maps/dir//1625 Mill Plain Rd, Fairfield, CT 06824","Riverfield School | Fairfield, CT | EV Station",Wall 2 Plugs  kW 1 Stationcheck_circle0 Availableaccount_circle0 In Useremove_circle0 Unavailable Non-networked,333098,https://www.plugshare.com/location/87908,87908
73653,41.562273,-72.648363,All Checkins (198),"https://www.google.com/maps/dir//245 deKoven Drive, Middletown, CT 06457, USA","Melilli Parking Lot | Middletown, CT | EV Station",J-1772 12 Plugs  kW 6 Stationscheck_circle0 Availableaccount_circle0 In Useremove_circle0 Unavailable Non-networked,333140,https://www.plugshare.com/location/88005,88005
73729,41.394601,2.152651,All Checkins (2),"https://www.google.com/maps/dir//Avinguda Diagonal, 427, 08036‎ Barcelona‎ Catalunya, Espanya","EdR Diagonal-Muntaner | Barcelona, CT | EV Station",Type 2 2 Plugs  kW 2 Stationscheck_circle0 Availableaccount_circle0 In Useremove_circle0 Unavailable Non-networked Wall (Euro) 2 Plugs  kW 2 Stationscheck_circle0 Availableaccount_circle0 In Useremove_circle0 Unavailable Non-networked,333202,https://www.plugshare.com/location/88196,88196
73743,41.052279,-73.541845,All Checkins (1),"https://www.google.com/maps/dir//909 Washington Blvd, Stamford, CT 06901","Hotel Zero Degrees | Stamford, CT | EV Station",Wall 1 Plug  kW 1 Stationcheck_circle0 Availableaccount_circle0 In Useremove_circle0 Unavailable Non-networked,333212,https://www.plugshare.com/location/88220,88220
73747,41.236909,1.82399,All Checkins (2),"https://www.google.com/maps/dir//Calle Joan Salvat Papasseit, 38, 08870 Sitges, Barcelona, Spain","Meliá Sitges | Sitges, CT | EV Station",Wall (Euro) 2 Plugs  kW 2 Stationscheck_circle0 Availableaccount_circle0 In Useremove_circle0 Unavailable Non-networked,333216,https://www.plugshare.com/location/88228,88228
74011,41.372841,-72.909592,All Checkins (21),"https://www.google.com/maps/dir//200 Skiff St, Hamden CT 06518, United States","Partyka Chevrolet/Mazda/Isuzu | Hamden, CT | EV Station",J-1772 3 Plugs  kW 3 Stationscheck_circle0 Availableaccount_circle0 In Useremove_circle0 Unavailable Non-networked,390360,https://www.plugshare.com/location/88721,88721
74573,41.484018,1.918069,All Checkins (2),"https://www.google.com/maps/dir//Avenida Comte de Llobregat, 12, 08760 Martorell, Barcelona, Spain","FGC Estació trens de Martorell | Martorell, CT | EV Station",Wall (Euro) 2 Plugs  kW 2 Stationscheck_circle0 Availableaccount_circle0 In Useremove_circle0 Unavailable Non-networked,390390,https://www.plugshare.com/location/89109,89109
74575,41.402684,2.194711,All Checkins (17),"https://www.google.com/maps/dir//Barcelona, Carrer de Roc Boronat, 127","Doesnt Work!! EdRR Santiago Losada Media-TIC TRIO | Barcelona, CT | EV Station",Type 2 1 Plug 50 kW 1 Stationcheck_circle0 Availableaccount_circle0 In Useremove_circle0 Unavailable Non-networked CHAdeMO 1 Plug 50 kW 1 Stationcheck_circle0 Availableaccount_circle0 In Useremove_circle0 Unavailable Non-networked CCS2 1 Plug 50 kW 1 Stationcheck_circle0 Availableaccount_circle0 In Useremove_circle0 Unavailable Non-networked,333536,https://www.plugshare.com/location/89111,89111
74727,41.903868,-72.467936,All Checkins (159),"https://www.google.com/maps/dir//57 Main St, Ellington, CT 06029, USA","Ellington Town Hall | Ellington, CT | EV Station",J-1772 2 Plugs 9.6 kW 2 Stationscheck_circle2 Availableaccount_circle0 In Useremove_circle0 UnavailableAmpUp Non-networked,390421,https://www.plugshare.com/location/89470,89470
74744,41.332546,-72.044744,All Checkins (34),"https://www.google.com/maps/dir//155 Tower Ave Groton CT 06340, United States","Groton New London Airport | Groton, CT | EV Station",J-1772 2 Plugs  kW 1 Stationcheck_circle0 Availableaccount_circle0 In Useremove_circle0 Unavailable Non-networked,333683,https://www.plugshare.com/location/89510,89510
74779,41.955366,3.217116,All Checkins (0),"https://www.google.com/maps/dir//Carrer del Corall, 11–19, 17255‎ Aiguafreda‎ Catalonia, Spain","Begur Villas | Begur, CT | EV Station",Commando 1 Plug  kW 1 Stationcheck_circle0 Availableaccount_circle0 In Useremove_circle0 Unavailable Non-networked,333714,https://www.plugshare.com/location/89596,89596
74968,41.47673,-72.907097,All Checkins (113),"https://www.google.com/maps/dir//1021 S Main St, Cheshire, CT 06410, USA","Big Y World Class Market | Cheshire, CT | EV Station",J-1772 2 Plugs  kW 2 Stationscheck_circle0 Availableaccount_circle0 In Useremove_circle0 Unavailable Non-networked,333855,https://www.plugshare.com/location/89919,89919
75476,41.824636,3.077119,All Checkins (1),"https://www.google.com/maps/dir//160 Av. del Cavall Bernat, 160, Platja d'Aro, Spain, 17250","Salles Hotel & Spa Cala del Pi | Platja d'Aro, CT | EV Station",Type 2 1 Plug 22 kW 1 Stationcheck_circle0 Availableaccount_circle0 In Useremove_circle0 UnavailableTesla Destination Non-networked,333879,https://www.plugshare.com/location/89962,89962
75496,41.880496,-72.800186,All Checkins (305),"https://www.google.com/maps/dir//20 Pent Rd, Simsbury, CT 06070, USA","Simsbury Town Hall | Simsbury, CT | EV Station",J-1772 2 Plugs  kW 2 Stationscheck_circle0 Availableaccount_circle0 In Useremove_circle0 Unavailable Non-networked,333895,https://www.plugshare.com/location/89998,89998
75528,41.22672,-73.062358,All Checkins (96),"https://www.google.com/maps/dir//103 W Main St, Milford, CT 06460, USA","Wasson Field | Milford, CT | EV Station",J-1772 2 Plugs  kW 1 Stationcheck_circle0 Availableaccount_circle0 In Useremove_circle0 Unavailable Non-networked,333922,https://www.plugshare.com/location/90093,90093
75534,44.1693267636321,28.6122118849335,All Checkins (1520),"https://www.google.com/maps/dir//Strada Cumpenei 2, Constanța 900147, Romania","Cora Brătianu Constanta | Constanța, CT | EV Station",Type 2 2 Plugs 22 kW 2 Stationscheck_circle0 Availableaccount_circle0 In Useremove_circle0 UnavailableEV Connect Romania Non-networked,333926,https://www.plugshare.com/location/90108,90108
75559,40.712391,0.579199,All Checkins (12),"https://www.google.com/maps/dir//Av. Alcalde Palau, 57, 43870 Amposta, Tarragona, Spain","EdRR Amposta Av.Alcalde Palau PIRVEC-1 (50kW) - ETECNIC | Amposta, CT | EV Station",Type 2 1 Plug 50 kW 1 Stationcheck_circle0 Availableaccount_circle0 In Useremove_circle0 Unavailable Non-networked CHAdeMO 1 Plug 50 kW 1 Stationcheck_circle0 Availableaccount_circle0 In Useremove_circle0 Unavailable Non-networked CCS2 1 Plug 50 kW 1 Stationcheck_circle0 Availableaccount_circle0 In Useremove_circle0 Unavailable Non-networked,333948,https://www.plugshare.com/location/90167,90167
75583,41.762337,-72.672843,All Checkins (177),"https://www.google.com/maps/dir//23-29 Prospect St, Hartford, CT 06103, USA","Hartford City Hall | Hartford, CT | EV Station",J-1772 1 Plug  kW 1 Stationcheck_circle0 Availableaccount_circle0 In Useremove_circle0 Unavailable Non-networked,390492,https://www.plugshare.com/location/90221,90221
79354,41.387161,2.196535,All Checkins (0),"https://www.google.com/maps/dir//19 Calle Marina, Barcelona, , Spain, 8005","Hotel Arts Barcelona | Barcelona, CT | EV Station",Type 2 2 Plugs 22 kW 2 Stationscheck_circle0 Availableaccount_circle0 In Useremove_circle0 UnavailableTesla Destination Non-networked,334046,https://www.plugshare.com/location/90399,90399
83396,40.7529773469518,0.606406247850413,All Checkins (67),"https://www.google.com/maps/dir//N-235, 43896 L'Aldea, Tarragona, Spain","Restaurant Exit l'Aldea (1) | L'Aldea, CT | EV Station",CCS2 16 Plugs 250 kW 16 Stationscheck_circle0 Availableaccount_circle0 In Useremove_circle0 UnavailableSupercharger Non-networked,334181,https://www.plugshare.com/location/90714,90714
83853,41.526062,2.393997,All Checkins (20),"https://www.google.com/maps/dir//Carrer del Mossèn Cinto Verdaguer, 08349‎ Cabrera de Mar‎ Catalunya, Espanya","EdRR Ajuntament de Cabrera PIRVEC-2 | Cabrera de Mar, CT | EV Station",Type 2 1 Plug 50 kW 1 Stationcheck_circle0 Availableaccount_circle0 In Useremove_circle0 Unavailable Non-networked CCS2 1 Plug 50 kW 1 Stationcheck_circle0 Availableaccount_circle0 In Useremove_circle0 Unavailable Non-networked CHAdeMO 1 Plug 50 kW 1 Stationcheck_circle0 Availableaccount_circle0 In Useremove_circle0 Unavailable Non-networked,334384,https://www.plugshare.com/location/91219,91219
83944,41.345248,-72.033257,All Checkins (59),"https://www.google.com/maps/dir//45 Fort Hill Rd, Groton CT 06340, United States","Groton Town Hall | Groton, CT | EV Station",J-1772 2 Plugs  kW 2 Stationscheck_circle0 Availableaccount_circle0 In Useremove_circle0 Unavailable Non-networked,390608,https://www.plugshare.com/location/91400,91400
83995,41.348321,-72.029581,All Checkins (94),"https://www.google.com/maps/dir//52 Newtown Rd, Groton CT 06340, United States","Groton Public Library | Groton, CT | EV Station",J-1772 2 Plugs  kW 1 Stationcheck_circle0 Availableaccount_circle0 In Useremove_circle0 Unavailable Non-networked,334502,https://www.plugshare.com/location/91550,91550
84019,41.276782,-72.523895,All Checkins (66),"https://www.google.com/maps/dir//54 East Main Street, Clinton, CT, 06413","Clinton Town Hall - Rear Parking Lot | Clinton, CT | EV Station",J-1772 2 Plugs  kW 1 Stationcheck_circle0 Availableaccount_circle0 In Useremove_circle0 Unavailable Non-networked,334521,https://www.plugshare.com/location/91609,91609
84085,41.183082,0.566713,All Checkins (1),"https://www.google.com/maps/dir//Carrer Unió, 8, 43791 Ascó, Tarragona","Ascó - INGETEAM - ETECNIC | Ascó, CT | EV Station",Type 2 2 Plugs  kW 1 Stationcheck_circle0 Availableaccount_circle0 In Useremove_circle0 Unavailable Non-networked,334576,https://www.plugshare.com/location/91753,91753
86200,44.172764,28.636143,All Checkins (14127),"https://www.google.com/maps/dir//2 Bulevardul I. C. Brătianu, Constanța, 900178, ROU","Kaufland Constanța | Constanța, CT | EV Station",Type 2 2 Plugs 15.36 kW 2 Stationscheck_circle1 Availableaccount_circle1 In Useremove_circle0 UnavailableRenovatio e-charge Non-networked CHAdeMO 1 Plug 50 kW 1 Stationcheck_circle1 Availableaccount_circle0 In Useremove_circle0 UnavailableRenovatio e-charge Non-networked CCS2 1 Plug 50 kW 1 Stationcheck_circle1 Availableaccount_circle0 In Useremove_circle0 UnavailableRenovatio e-charge Non-networked,334845,https://www.plugshare.com/location/92330,92330
86764,41.80391,-72.254738,All Checkins (42),"https://www.google.com/maps/dir//2158-2250 Jim Calhoun Way, Storrs, CT 06269, USA","University of CT - South Garage | Mansfield, CT | EV Station",J-1772 4 Plugs  kW 4 Stationscheck_circle0 Availableaccount_circle0 In Useremove_circle0 Unavailable Non-networked,335289,https://www.plugshare.com/location/92969,92969
87202,41.388003,2.173182,All Checkins (1),"https://www.google.com/maps/dir//Via Laetana 69, Via Laet, Barcelona, , Spain, 8003","Hotel H10 Cubik | Barcelona, CT | EV Station",Type 2 1 Plug 22 kW 1 Stationcheck_circle0 Availableaccount_circle0 In Useremove_circle0 UnavailableTesla Destination Non-networked,335544,https://www.plugshare.com/location/93572,93572
87215,41.689476,2.818164,All Checkins (0),"https://www.google.com/maps/dir//Playa de Santa Cristina, Lloret de Mar, , Spain, 17310","Hotel Santa Marta | Lloret de Mar, CT | EV Station",Type 2 1 Plug 22 kW 1 Stationcheck_circle0 Availableaccount_circle0 In Useremove_circle0 UnavailableTesla Destination Non-networked,335554,https://www.plugshare.com/location/93585,93585
87228,41.317781,-72.066003,All Checkins (86),"https://www.google.com/maps/dir//1084 Shennecossett Rd, Groton, CT 06340, USA","University of Connecticut - Avery Point Campus | Groton, CT | EV Station",J-1772 2 Plugs  kW 2 Stationscheck_circle0 Availableaccount_circle0 In Useremove_circle0 Unavailable Non-networked,335564,https://www.plugshare.com/location/93602,93602
